{
  "type": "FeatureCollection",
  "features": [
    {
      "type": "Feature",
      "properties": {
        "norad_id": 19071,
        "name": "OSCAR 32",
        "group": "nnss",
        "lat": -28.501511360467422,
        "lon": 17.088234278530276,
        "alt_km": 1294.3007984957185,
        "timestamp": "2025-12-25T07:00:34.314500+00:00",
        "meta_object_name": "OSCAR 32",
        "meta_object_id": "1988-033B",
        "meta_epoch": "2025-12-24T07:42:13.754592",
        "meta_mean_motion": 13.27955652,
        "meta_eccentricity": 0.01891926,
        "meta_inclination": 90.3208,
        "meta_ra_of_asc_node": 16.8837,
        "meta_arg_of_pericenter": 134.7211,
        "meta_mean_anomaly": 237.9771,
        "meta_ephemeris_type": 0,
        "meta_classification_type": "U",
        "meta_norad_cat_id": 19071,
        "meta_element_set_no": 999,
        "meta_rev_at_epoch": 82419,
        "meta_bstar": 8.5937937e-05,
        "meta_mean_motion_dot": 5.3e-07,
        "meta_mean_motion_ddot": 0,
        "tle_line1": "1 19071U 88033B   25358.32099253  .00000053  00000+0  85938-4 0  9990",
        "tle_line2": "2 19071  90.3208  16.8837 0189192 134.7211 237.9771 13.27955652824199"
      },
      "geometry": {
        "type": "Point",
        "coordinates": [
          17.088234278530276,
          -28.501511360467422
        ]
      }
    },
    {
      "type": "Feature",
      "properties": {
        "norad_id": 19223,
        "name": "NOVA 2",
        "group": "nnss",
        "lat": -57.162447935786126,
        "lon": 78.23541175010003,
        "alt_km": 1163.3630366320303,
        "timestamp": "2025-12-25T07:00:34.314510+00:00",
        "meta_object_name": "NOVA 2",
        "meta_object_id": "1988-052A",
        "meta_epoch": "2025-12-24T19:11:53.971008",
        "meta_mean_motion": 13.22937139,
        "meta_eccentricity": 0.00295439,
        "meta_inclination": 89.9863,
        "meta_ra_of_asc_node": 78.2573,
        "meta_arg_of_pericenter": 343.513,
        "meta_mean_anomaly": 137.1394,
        "meta_ephemeris_type": 0,
        "meta_classification_type": "U",
        "meta_norad_cat_id": 19223,
        "meta_element_set_no": 999,
        "meta_rev_at_epoch": 81107,
        "meta_bstar": 0.00014443023,
        "meta_mean_motion_dot": 6.9e-07,
        "meta_mean_motion_ddot": 0,
        "tle_line1": "1 19223U 88052A   25358.79993022  .00000069  00000+0  14443-3 0  9997",
        "tle_line2": "2 19223  89.9863  78.2573 0029543 343.5130 137.1394 13.22937139811071"
      },
      "geometry": {
        "type": "Point",
        "coordinates": [
          78.23541175010003,
          -57.162447935786126
        ]
      }
    },
    {
      "type": "Feature",
      "properties": {
        "norad_id": 19419,
        "name": "OSCAR 25",
        "group": "nnss",
        "lat": -7.4659080712503325,
        "lon": -159.7195980605229,
        "alt_km": 1037.4021664089314,
        "timestamp": "2025-12-25T07:00:34.314523+00:00",
        "meta_object_name": "OSCAR 25",
        "meta_object_id": "1988-074A",
        "meta_epoch": "2025-12-24T13:00:49.693248",
        "meta_mean_motion": 13.42625466,
        "meta_eccentricity": 0.00951606,
        "meta_inclination": 90.0336,
        "meta_ra_of_asc_node": 20.2823,
        "meta_arg_of_pericenter": 211.7174,
        "meta_mean_anomaly": 313.9543,
        "meta_ephemeris_type": 0,
        "meta_classification_type": "U",
        "meta_norad_cat_id": 19419,
        "meta_element_set_no": 999,
        "meta_rev_at_epoch": 82798,
        "meta_bstar": 0.00013246409,
        "meta_mean_motion_dot": 8.6e-07,
        "meta_mean_motion_ddot": 0,
        "tle_line1": "1 19419U 88074A   25358.54224182  .00000086  00000+0  13246-3 0  9994",
        "tle_line2": "2 19419  90.0336  20.2823 0095160 211.7174 313.9543 13.42625466827989"
      },
      "geometry": {
        "type": "Point",
        "coordinates": [
          -159.7195980605229,
          -7.4659080712503325
        ]
      }
    },
    {
      "type": "Feature",
      "properties": {
        "norad_id": 19420,
        "name": "OSCAR 31",
        "group": "nnss",
        "lat": 68.97536085204567,
        "lon": 20.544641804681845,
        "alt_km": 1141.9557072625748,
        "timestamp": "2025-12-25T07:00:34.314545+00:00",
        "meta_object_name": "OSCAR 31",
        "meta_object_id": "1988-074B",
        "meta_epoch": "2025-12-24T20:48:18.577152",
        "meta_mean_motion": 13.42586519,
        "meta_eccentricity": 0.00935792,
        "meta_inclination": 90.0354,
        "meta_ra_of_asc_node": 20.6353,
        "meta_arg_of_pericenter": 204.9262,
        "meta_mean_anomaly": 331.0281,
        "meta_ephemeris_type": 0,
        "meta_classification_type": "U",
        "meta_norad_cat_id": 19420,
        "meta_element_set_no": 999,
        "meta_rev_at_epoch": 82813,
        "meta_bstar": 0.00010318326,
        "meta_mean_motion_dot": 6.9e-07,
        "meta_mean_motion_ddot": 0,
        "tle_line1": "1 19420U 88074B   25358.86688168  .00000069  00000+0  10318-3 0  9997",
        "tle_line2": "2 19420  90.0354  20.6353 0093579 204.9262 331.0281 13.42586519828130"
      },
      "geometry": {
        "type": "Point",
        "coordinates": [
          20.544641804681845,
          68.97536085204567
        ]
      }
    }
  ]
}